{
  "norad_id": 45245,
  "name": "JCSAT-17",
  "history": [
    {
      "epoch": "2026-03-28T16:29:51.665856",
      "apogee_km": 35805.177248601394,
      "perigee_km": 35768.00482436443,
      "latitude_deg": 1.2014790087506508,
      "longitude_deg": -149.50926016015,
      "semi_major_axis_km": 42164.72803648291,
      "eccentricity": 0.0004408,
      "inclination_deg": 5.3948,
      "raan_deg": 356.0826,
      "arg_perigee_deg": 4.798,
      "mean_anomaly_deg": 208.6519,
      "mean_motion_rev_day": 1.00271799
    },
    {
      "epoch": "2026-03-28T23:59:20.065056",
      "apogee_km": 35805.20135859015,
      "perigee_km": 35768.03734234285,
      "latitude_deg": -4.717855499690086,
      "longitude_deg": -119.54437215998769,
      "semi_major_axis_km": 42164.7563504665,
      "eccentricity": 0.0004407,
      "inclination_deg": 5.3948,
      "raan_deg": 356.0859,
      "arg_perigee_deg": 5.3771,
      "mean_anomaly_deg": 320.7453,
      "mean_motion_rev_day": 1.00271698
    }
  ]
}